STARLINK-37263          
1 68544U 26070C   26099.83335647 -.00901999  27342-3 -17907-2 0  9993
2 68544  53.1585 228.8426 0000832  52.8585 241.6245 15.99223533  2383
