{
  "norad_id": 68544,
  "name": "STARLINK-37263",
  "history": [
    {
      "epoch": "2026-04-09T20:00:01.999008Z",
      "apogee_km": 277.12553137320174,
      "perigee_km": 276.0181878189651,
      "latitude_deg": -46.940824155013374,
      "longitude_deg": 37.89042321140226,
      "height_km": 292.8309035833999,
      "semi_major_axis_km": 6654.708859596083,
      "eccentricity": 8.32e-05,
      "inclination_deg": 53.1585,
      "raan_deg": 228.8426,
      "arg_perigee_deg": 52.8585,
      "mean_anomaly_deg": 241.6245,
      "mean_motion_rev_day": 15.99223533
    }
  ]
}